HERMES-3                
1 63835U 25052BR  26068.93751242  .00020316  00000+0  69958-3 0  9995
2 63835  97.3987 324.6131 0007993 112.9583 247.2502 15.30039785 54863
STARLINK-36511          
1 67451U 26008G   26068.39687263  .00028197  00000+0  10298-2 0  9993
2 67451  43.0004 207.2129 0003175 282.3495  77.7001 15.27593687  9529
