[{"OBJECT_NAME":"HERMES-3","OBJECT_ID":"2025-052BR","EPOCH":"2026-03-09T22:30:01.073952","MEAN_MOTION":15.30039786,"ECCENTRICITY":0.00079928,"INCLINATION":97.3987,"RA_OF_ASC_NODE":324.6131,"ARG_OF_PERICENTER":112.9583,"MEAN_ANOMALY":247.2502,"EPHEMERIS_TYPE":0,"CLASSIFICATION_TYPE":"U","NORAD_CAT_ID":63835,"ELEMENT_SET_NO":999,"REV_AT_EPOCH":5486,"BSTAR":0.0006995793,"MEAN_MOTION_DOT":0.00020316,"MEAN_MOTION_DDOT":0},{"OBJECT_NAME":"STARLINK-36511","OBJECT_ID":"2026-008G","EPOCH":"2026-03-09T09:31:29.795232","MEAN_MOTION":15.27593687,"ECCENTRICITY":0.00031759,"INCLINATION":43.0004,"RA_OF_ASC_NODE":207.2129,"ARG_OF_PERICENTER":282.3495,"MEAN_ANOMALY":77.7001,"EPHEMERIS_TYPE":0,"CLASSIFICATION_TYPE":"U","NORAD_CAT_ID":67451,"ELEMENT_SET_NO":999,"REV_AT_EPOCH":952,"BSTAR":0.0010297545,"MEAN_MOTION_DOT":0.00028197,"MEAN_MOTION_DDOT":0}]
